[{"OBJECT_NAME":"STARLINK-34569","OBJECT_ID":"2025-137S","EPOCH":"2025-09-23T02:25:52.181760","MEAN_MOTION":15.39646918,"ECCENTRICITY":0.00016466,"INCLINATION":53.1621,"RA_OF_ASC_NODE":40.9616,"ARG_OF_PERICENTER":87.2087,"MEAN_ANOMALY":272.9106,"EPHEMERIS_TYPE":0,"CLASSIFICATION_TYPE":"U","NORAD_CAT_ID":64610,"ELEMENT_SET_NO":999,"REV_AT_EPOCH":1497,"BSTAR":0.0018469807,"MEAN_MOTION_DOT":0.00074267,"MEAN_MOTION_DDOT":0},{"OBJECT_NAME":"STARLINK-34494","OBJECT_ID":"2025-137T","EPOCH":"2025-09-23T02:19:11.169984","MEAN_MOTION":15.39647128,"ECCENTRICITY":0.00016893,"INCLINATION":53.1612,"RA_OF_ASC_NODE":40.9322,"ARG_OF_PERICENTER":73.4759,"MEAN_ANOMALY":286.6431,"EPHEMERIS_TYPE":0,"CLASSIFICATION_TYPE":"U","NORAD_CAT_ID":64611,"ELEMENT_SET_NO":999,"REV_AT_EPOCH":1497,"BSTAR":0.0022264194,"MEAN_MOTION_DOT":0.00089791,"MEAN_MOTION_DDOT":0},{"OBJECT_NAME":"STARLINK-34521","OBJECT_ID":"2025-137U","EPOCH":"2025-09-23T02:05:48.419808","MEAN_MOTION":15.39643992,"ECCENTRICITY":0.00012497,"INCLINATION":53.161,"RA_OF_ASC_NODE":40.8736,"ARG_OF_PERICENTER":89.046,"MEAN_ANOMALY":271.0688,"EPHEMERIS_TYPE":0,"CLASSIFICATION_TYPE":"U","NORAD_CAT_ID":64612,"ELEMENT_SET_NO":999,"REV_AT_EPOCH":1497,"BSTAR":0.0018608504,"MEAN_MOTION_DOT":0.00074826,"MEAN_MOTION_DDOT":0},{"OBJECT_NAME":"STARLINK-34500","OBJECT_ID":"2025-137V","EPOCH":"2025-09-23T06:00:02.999808","MEAN_MOTION":15.39622043,"ECCENTRICITY":0.00011978,"INCLINATION":53.16,"RA_OF_ASC_NODE":40.006,"ARG_OF_PERICENTER":67.6694,"MEAN_ANOMALY":166.1219,"EPHEMERIS_TYPE":0,"CLASSIFICATION_TYPE":"U","NORAD_CAT_ID":64613,"ELEMENT_SET_NO":999,"REV_AT_EPOCH":585,"BSTAR":-0.0020110515,"MEAN_MOTION_DOT":-0.00080006,"MEAN_MOTION_DDOT":0},{"OBJECT_NAME":"STARLINK-34440","OBJECT_ID":"2025-137W","EPOCH":"2025-09-22T16:24:53.132256","MEAN_MOTION":15.39624593,"ECCENTRICITY":0.00024246,"INCLINATION":53.1608,"RA_OF_ASC_NODE":42.6231,"ARG_OF_PERICENTER":91.7578,"MEAN_ANOMALY":268.3705,"EPHEMERIS_TYPE":0,"CLASSIFICATION_TYPE":"U","NORAD_CAT_ID":64614,"ELEMENT_SET_NO":999,"REV_AT_EPOCH":1491,"BSTAR":0.0015346107,"MEAN_MOTION_DOT":0.00061492,"MEAN_MOTION_DDOT":0},{"OBJECT_NAME":"STARLINK-34469","OBJECT_ID":"2025-137X","EPOCH":"2025-09-22T16:51:38.041632","MEAN_MOTION":15.39623015,"ECCENTRICITY":0.00012538,"INCLINATION":53.161,"RA_OF_ASC_NODE":42.7361,"ARG_OF_PERICENTER":55.3743,"MEAN_ANOMALY":304.738,"EPHEMERIS_TYPE":0,"CLASSIFICATION_TYPE":"U","NORAD_CAT_ID":64615,"ELEMENT_SET_NO":999,"REV_AT_EPOCH":1491,"BSTAR":0.0032775769,"MEAN_MOTION_DOT":0.00133025,"MEAN_MOTION_DDOT":0},{"OBJECT_NAME":"STARLINK-34413","OBJECT_ID":"2025-137Y","EPOCH":"2025-09-23T01:59:07.035648","MEAN_MOTION":15.3966518,"ECCENTRICITY":0.00013507,"INCLINATION":53.1592,"RA_OF_ASC_NODE":40.843,"ARG_OF_PERICENTER":96.5908,"MEAN_ANOMALY":263.5251,"EPHEMERIS_TYPE":0,"CLASSIFICATION_TYPE":"U","NORAD_CAT_ID":64616,"ELEMENT_SET_NO":999,"REV_AT_EPOCH":1507,"BSTAR":0.0013819864,"MEAN_MOTION_DOT":0.00055364,"MEAN_MOTION_DDOT":0},{"OBJECT_NAME":"STARLINK-34417","OBJECT_ID":"2025-137Z","EPOCH":"2025-09-23T06:00:02.999808","MEAN_MOTION":15.39615703,"ECCENTRICITY":0.00010245,"INCLINATION":53.16,"RA_OF_ASC_NODE":27.9853,"ARG_OF_PERICENTER":128.4185,"MEAN_ANOMALY":327.4018,"EPHEMERIS_TYPE":0,"CLASSIFICATION_TYPE":"U","NORAD_CAT_ID":64617,"ELEMENT_SET_NO":999,"REV_AT_EPOCH":595,"BSTAR":-0.0015427003,"MEAN_MOTION_DOT":-0.000616,"MEAN_MOTION_DDOT":0},{"OBJECT_NAME":"STARLINK-34415","OBJECT_ID":"2025-137AA","EPOCH":"2025-09-22T16:18:09.920736","MEAN_MOTION":15.39777575,"ECCENTRICITY":9.755e-5,"INCLINATION":53.1601,"RA_OF_ASC_NODE":42.5923,"ARG_OF_PERICENTER":51.4532,"MEAN_ANOMALY":308.656,"EPHEMERIS_TYPE":0,"CLASSIFICATION_TYPE":"U","NORAD_CAT_ID":64618,"ELEMENT_SET_NO":999,"REV_AT_EPOCH":1491,"BSTAR":0.0023494466,"MEAN_MOTION_DOT":0.00095251,"MEAN_MOTION_DDOT":0},{"OBJECT_NAME":"STARLINK-34416","OBJECT_ID":"2025-137AB","EPOCH":"2025-09-22T16:11:30.743232","MEAN_MOTION":15.39611706,"ECCENTRICITY":0.00011314,"INCLINATION":53.1598,"RA_OF_ASC_NODE":42.5634,"ARG_OF_PERICENTER":79.1135,"MEAN_ANOMALY":280.9997,"EPHEMERIS_TYPE":0,"CLASSIFICATION_TYPE":"U","NORAD_CAT_ID":64619,"ELEMENT_SET_NO":999,"REV_AT_EPOCH":1491,"BSTAR":0.0025082977,"MEAN_MOTION_DOT":0.00101244,"MEAN_MOTION_DDOT":0},{"OBJECT_NAME":"STARLINK-34414","OBJECT_ID":"2025-137AC","EPOCH":"2025-09-22T15:51:27.081504","MEAN_MOTION":15.39605449,"ECCENTRICITY":0.00014865,"INCLINATION":53.1608,"RA_OF_ASC_NODE":42.4752,"ARG_OF_PERICENTER":87.0332,"MEAN_ANOMALY":273.0843,"EPHEMERIS_TYPE":0,"CLASSIFICATION_TYPE":"U","NORAD_CAT_ID":64620,"ELEMENT_SET_NO":999,"REV_AT_EPOCH":1491,"BSTAR":0.0020744622,"MEAN_MOTION_DOT":0.0008345,"MEAN_MOTION_DDOT":0},{"OBJECT_NAME":"STARLINK-34464","OBJECT_ID":"2025-139A","EPOCH":"2025-09-23T04:03:23.162976","MEAN_MOTION":15.30225938,"ECCENTRICITY":8.837e-5,"INCLINATION":53.1609,"RA_OF_ASC_NODE":185.3249,"ARG_OF_PERICENTER":94.0428,"MEAN_ANOMALY":266.0674,"EPHEMERIS_TYPE":0,"CLASSIFICATION_TYPE":"U","NORAD_CAT_ID":64664,"ELEMENT_SET_NO":999,"REV_AT_EPOCH":1463,"BSTAR":0.0016069451,"MEAN_MOTION_DOT":0.00047577,"MEAN_MOTION_DDOT":0},{"OBJECT_NAME":"STARLINK-34555","OBJECT_ID":"2025-139B","EPOCH":"2025-09-23T02:24:46.529856","MEAN_MOTION":15.3022903,"ECCENTRICITY":0.00011398,"INCLINATION":53.1599,"RA_OF_ASC_NODE":185.608,"ARG_OF_PERICENTER":84.0308,"MEAN_ANOMALY":276.0823,"EPHEMERIS_TYPE":0,"CLASSIFICATION_TYPE":"U","NORAD_CAT_ID":64665,"ELEMENT_SET_NO":999,"REV_AT_EPOCH":1452,"BSTAR":0.00058480834,"MEAN_MOTION_DOT":0.00017016,"MEAN_MOTION_DDOT":0},{"OBJECT_NAME":"STARLINK-34390","OBJECT_ID":"2025-139C","EPOCH":"2025-09-22T11:31:11.508384","MEAN_MOTION":15.30219466,"ECCENTRICITY":0.00014067,"INCLINATION":53.1591,"RA_OF_ASC_NODE":188.1344,"ARG_OF_PERICENTER":69.9671,"MEAN_ANOMALY":290.1481,"EPHEMERIS_TYPE":0,"CLASSIFICATION_TYPE":"U","NORAD_CAT_ID":64666,"ELEMENT_SET_NO":999,"REV_AT_EPOCH":1459,"BSTAR":0.0012051947,"MEAN_MOTION_DOT":0.00035528,"MEAN_MOTION_DDOT":0},{"OBJECT_NAME":"STARLINK-34382","OBJECT_ID":"2025-139D","EPOCH":"2025-09-23T04:21:37.262592","MEAN_MOTION":15.30231165,"ECCENTRICITY":0.00012326,"INCLINATION":53.161,"RA_OF_ASC_NODE":185.405,"ARG_OF_PERICENTER":98.9693,"MEAN_ANOMALY":261.1448,"EPHEMERIS_TYPE":0,"CLASSIFICATION_TYPE":"U","NORAD_CAT_ID":64667,"ELEMENT_SET_NO":999,"REV_AT_EPOCH":1463,"BSTAR":0.0026596476,"MEAN_MOTION_DOT":0.00079333,"MEAN_MOTION_DDOT":0},{"OBJECT_NAME":"STARLINK-34395","OBJECT_ID":"2025-139E","EPOCH":"2025-09-23T04:07:56.644032","MEAN_MOTION":15.30228085,"ECCENTRICITY":0.00011289,"INCLINATION":53.1614,"RA_OF_ASC_NODE":185.3448,"ARG_OF_PERICENTER":85.942,"MEAN_ANOMALY":274.171,"EPHEMERIS_TYPE":0,"CLASSIFICATION_TYPE":"U","NORAD_CAT_ID":64668,"ELEMENT_SET_NO":999,"REV_AT_EPOCH":1463,"BSTAR":0.0012616071,"MEAN_MOTION_DOT":0.00037226,"MEAN_MOTION_DDOT":0}]
