STARLINK-34569          
1 64610U 25137S   25266.10129840  .00074267  00000+0  18470-2 0  9998
2 64610  53.1621  40.9616 0001646  87.2087 272.9106 15.39646918 14972
STARLINK-34494          
1 64611U 25137T   25266.09665706  .00089791  00000+0  22264-2 0  9997
2 64611  53.1612  40.9322 0001689  73.4759 286.6431 15.39647128 14974
STARLINK-34521          
1 64612U 25137U   25266.08736597  .00074826  00000+0  18609-2 0  9995
2 64612  53.1610  40.8736 0001249  89.0460 271.0688 15.39643992 14972
STARLINK-34500          
1 64613U 25137V   25266.25003472 -.00080006  00000+0 -20111-2 0  9994
2 64613  53.1600  40.0060 0001197  67.6694 166.1219 15.39622043  5852
STARLINK-34440          
1 64614U 25137W   25265.68394829  .00061492  00000+0  15346-2 0  9990
2 64614  53.1608  42.6231 0002424  91.7578 268.3705 15.39624593 14916
STARLINK-34469          
1 64615U 25137X   25265.70252363  .00133025  00000+0  32776-2 0  9998
2 64615  53.1610  42.7361 0001253  55.3743 304.7380 15.39623015 14916
STARLINK-34413          
1 64616U 25137Y   25266.08272032  .00055364  00000+0  13820-2 0  9994
2 64616  53.1592  40.8430 0001350  96.5908 263.5251 15.39665180 15076
STARLINK-34417          
1 64617U 25137Z   25266.25003472 -.00061600  00000+0 -15427-2 0  9991
2 64617  53.1600  27.9853 0001024 128.4185 327.4018 15.39615703  5955
STARLINK-34415          
1 64618U 25137AA  25265.67928149  .00095251  00000+0  23494-2 0  9994
2 64618  53.1601  42.5923 0000975  51.4532 308.6560 15.39777575 14918
STARLINK-34416          
1 64619U 25137AB  25265.67466138  .00101244  00000+0  25083-2 0  9996
2 64619  53.1598  42.5634 0001131  79.1135 280.9997 15.39611706 14913
STARLINK-34414          
1 64620U 25137AC  25265.66073011  .00083450  00000+0  20745-2 0  9999
2 64620  53.1608  42.4752 0001486  87.0332 273.0843 15.39605449 14917
STARLINK-34464          
1 64664U 25139A   25266.16901809  .00047577  00000+0  16069-2 0  9994
2 64664  53.1609 185.3249 0000883  94.0428 266.0674 15.30225938 14633
STARLINK-34555          
1 64665U 25139B   25266.10053854  .00017016  00000+0  58481-3 0  9997
2 64665  53.1599 185.6080 0001139  84.0308 276.0823 15.30229030 14521
STARLINK-34390          
1 64666U 25139C   25265.47999431  .00035528  00000+0  12052-2 0  9998
2 64666  53.1591 188.1344 0001406  69.9671 290.1481 15.30219466 14593
STARLINK-34382          
1 64667U 25139D   25266.18168128  .00079333  00000+0  26596-2 0  9999
2 64667  53.1610 185.4050 0001232  98.9693 261.1448 15.30231165 14639
STARLINK-34395          
1 64668U 25139E   25266.17218338  .00037226  00000+0  12616-2 0  9991
2 64668  53.1614 185.3448 0001128  85.9420 274.1710 15.30228085 14635
